{
  "type": "FeatureCollection",
  "features": [
    {
      "type": "Feature",
      "properties": {
        "name": "اصغر ابراهیمی",
        "imgLink": "lowyer-picture.png",
        "experience": 10,

        "ratingScore": 5,
        "reviews": ["he is a good lowyer", "he is the best"],
        "services": ["دعواهای خانوادگی", "اختلافات ارث و میراث", "دعاوی سیاسی"]
      },
      "geometry": {
        "type": "Point",
        "coordinates": [51.471318, 35.670138]
      }
    },
    {
      "type": "Feature",
      "properties": {
        "name": "ممد ابراهیمی",
        "imgLink": "l2.jpg",
        "experience": 10,
        "ratingScore": 5,
        "reviews": ["he is a good lowyer", "he is the best"],
        "services": ["دعواهای خانوادگی", "اختلافات ارث و میراث", "دعاوی سیاسی"]
      },
      "geometry": {
        "type": "Point",
        "coordinates": [50, 34]
      }
    }
  ]
}
